{
  "type": "FeatureCollection",
  "features": [
    {
      "type": "Feature",
      "properties": {
        "norad_id": 30817,
        "name": "FENGYUN 1C DEB",
        "group": "fengyun-1c-debris",
        "lat": 67.11328688004252,
        "lon": -30.24772635746617,
        "alt_km": 913.6408267018178,
        "timestamp": "2025-12-27T14:26:30.800630+00:00",
        "meta_object_name": "FENGYUN 1C DEB",
        "meta_object_id": "1999-025AVB",
        "meta_epoch": "2025-12-26T10:40:53.792256",
        "meta_mean_motion": 14.00728575,
        "meta_eccentricity": 0.0057722,
        "meta_inclination": 98.7855,
        "meta_ra_of_asc_node": 350.1299,
        "meta_arg_of_pericenter": 205.8821,
        "meta_mean_anomaly": 153.9454,
        "meta_ephemeris_type": 0,
        "meta_classification_type": "U",
        "meta_norad_cat_id": 30817,
        "meta_element_set_no": 999,
        "meta_rev_at_epoch": 96101,
        "meta_bstar": 0.00017607,
        "meta_mean_motion_dot": 2.24e-06,
        "meta_mean_motion_ddot": 0,
        "tle_line1": "1 30817U 99025AVB 25360.44506704  .00000224  00000+0  17607-3 0  9991",
        "tle_line2": "2 30817  98.7855 350.1299 0057722 205.8821 153.9454 14.00728575961018"
      },
      "geometry": {
        "type": "Point",
        "coordinates": [
          -30.24772635746617,
          67.11328688004252
        ]
      }
    },
    {
      "type": "Feature",
      "properties": {
        "norad_id": 30820,
        "name": "FENGYUN 1C DEB",
        "group": "fengyun-1c-debris",
        "lat": -38.04765183914803,
        "lon": 104.51047515495631,
        "alt_km": 863.8614694240468,
        "timestamp": "2025-12-27T14:26:30.800641+00:00",
        "meta_object_name": "FENGYUN 1C DEB",
        "meta_object_id": "1999-025AVE",
        "meta_epoch": "2025-12-25T12:33:12.194784",
        "meta_mean_motion": 14.2149962,
        "meta_eccentricity": 0.0051904,
        "meta_inclination": 98.6752,
        "meta_ra_of_asc_node": 95.6053,
        "meta_arg_of_pericenter": 151.6318,
        "meta_mean_anomaly": 338.3208,
        "meta_ephemeris_type": 0,
        "meta_classification_type": "U",
        "meta_norad_cat_id": 30820,
        "meta_element_set_no": 999,
        "meta_rev_at_epoch": 96605,
        "meta_bstar": 0.0020011,
        "meta_mean_motion_dot": 4.399e-05,
        "meta_mean_motion_ddot": 0,
        "tle_line1": "1 30820U 99025AVE 25359.52305781  .00004399  00000+0  20011-2 0  9993",
        "tle_line2": "2 30820  98.6752  95.6053 0051904 151.6318 338.3208 14.21499620966055"
      },
      "geometry": {
        "type": "Point",
        "coordinates": [
          104.51047515495631,
          -38.04765183914803
        ]
      }
    },
    {
      "type": "Feature",
      "properties": {
        "norad_id": 30821,
        "name": "FENGYUN 1C DEB",
        "group": "fengyun-1c-debris",
        "lat": 77.1586858040971,
        "lon": 100.65742675605516,
        "alt_km": 708.6567971228405,
        "timestamp": "2025-12-27T14:26:30.800651+00:00",
        "meta_object_name": "FENGYUN 1C DEB",
        "meta_object_id": "1999-025AVF",
        "meta_epoch": "2025-12-25T22:54:45.761184",
        "meta_mean_motion": 14.49745385,
        "meta_eccentricity": 0.0086733,
        "meta_inclination": 99.1039,
        "meta_ra_of_asc_node": 143.5826,
        "meta_arg_of_pericenter": 166.5334,
        "meta_mean_anomaly": 324.1746,
        "meta_ephemeris_type": 0,
        "meta_classification_type": "U",
        "meta_norad_cat_id": 30821,
        "meta_element_set_no": 999,
        "meta_rev_at_epoch": 98980,
        "meta_bstar": 0.00086483,
        "meta_mean_motion_dot": 3.442e-05,
        "meta_mean_motion_ddot": 0,
        "tle_line1": "1 30821U 99025AVF 25359.95469631  .00003442  00000+0  86483-3 0  9990",
        "tle_line2": "2 30821  99.1039 143.5826 0086733 166.5334 324.1746 14.49745385989802"
      },
      "geometry": {
        "type": "Point",
        "coordinates": [
          100.65742675605516,
          77.1586858040971
        ]
      }
    },
    {
      "type": "Feature",
      "properties": {
        "norad_id": 30822,
        "name": "FENGYUN 1C DEB",
        "group": "fengyun-1c-debris",
        "lat": 71.62449553029846,
        "lon": -123.1681973030034,
        "alt_km": 886.1127299571945,
        "timestamp": "2025-12-27T14:26:30.800661+00:00",
        "meta_object_name": "FENGYUN 1C DEB",
        "meta_object_id": "1999-025AVG",
        "meta_epoch": "2025-12-27T00:27:53.515296",
        "meta_mean_motion": 14.11360764,
        "meta_eccentricity": 0.00733959,
        "meta_inclination": 98.734,
        "meta_ra_of_asc_node": 28.6987,
        "meta_arg_of_pericenter": 244.3564,
        "meta_mean_anomaly": 145.0814,
        "meta_ephemeris_type": 0,
        "meta_classification_type": "U",
        "meta_norad_cat_id": 30822,
        "meta_element_set_no": 999,
        "meta_rev_at_epoch": 96903,
        "meta_bstar": 0.00040278444,
        "meta_mean_motion_dot": 7.04e-06,
        "meta_mean_motion_ddot": 0,
        "tle_line1": "1 30822U 99025AVG 25361.01936939  .00000704  00000+0  40278-3 0  9991",
        "tle_line2": "2 30822  98.7340  28.6987 0073395 244.3564 145.0814 14.11360764969036"
      },
      "geometry": {
        "type": "Point",
        "coordinates": [
          -123.1681973030034,
          71.62449553029846
        ]
      }
    },
    {
      "type": "Feature",
      "properties": {
        "norad_id": 30823,
        "name": "FENGYUN 1C DEB",
        "group": "fengyun-1c-debris",
        "lat": 80.32851182478508,
        "lon": 26.899187248693654,
        "alt_km": 815.1935102823754,
        "timestamp": "2025-12-27T14:26:30.800671+00:00",
        "meta_object_name": "FENGYUN 1C DEB",
        "meta_object_id": "1999-025AVH",
        "meta_epoch": "2025-12-25T09:13:30.836352",
        "meta_mean_motion": 14.02567843,
        "meta_eccentricity": 0.0134243,
        "meta_inclination": 98.7637,
        "meta_ra_of_asc_node": 139.9222,
        "meta_arg_of_pericenter": 49.3864,
        "meta_mean_anomaly": 13.7121,
        "meta_ephemeris_type": 0,
        "meta_classification_type": "U",
        "meta_norad_cat_id": 30823,
        "meta_element_set_no": 999,
        "meta_rev_at_epoch": 96211,
        "meta_bstar": 0.00018271,
        "meta_mean_motion_dot": 2.63e-06,
        "meta_mean_motion_ddot": 0,
        "tle_line1": "1 30823U 99025AVH 25359.38438468  .00000263  00000+0  18271-3 0  9991",
        "tle_line2": "2 30823  98.7637 139.9222 0134243  49.3864  13.7121 14.02567843962111"
      },
      "geometry": {
        "type": "Point",
        "coordinates": [
          26.899187248693654,
          80.32851182478508
        ]
      }
    },
    {
      "type": "Feature",
      "properties": {
        "norad_id": 30826,
        "name": "FENGYUN 1C DEB",
        "group": "fengyun-1c-debris",
        "lat": 23.36529591933162,
        "lon": 22.08627379219176,
        "alt_km": 711.4816842629971,
        "timestamp": "2025-12-27T14:26:30.800681+00:00",
        "meta_object_name": "FENGYUN 1C DEB",
        "meta_object_id": "1999-025AVL",
        "meta_epoch": "2025-12-26T07:46:25.771296",
        "meta_mean_motion": 14.8236502,
        "meta_eccentricity": 0.0144401,
        "meta_inclination": 98.8676,
        "meta_ra_of_asc_node": 196.8033,
        "meta_arg_of_pericenter": 313.7278,
        "meta_mean_anomaly": 228.0745,
        "meta_ephemeris_type": 0,
        "meta_classification_type": "U",
        "meta_norad_cat_id": 30826,
        "meta_element_set_no": 999,
        "meta_rev_at_epoch": 487,
        "meta_bstar": 0.00062754,
        "meta_mean_motion_dot": 5.953e-05,
        "meta_mean_motion_ddot": 0,
        "tle_line1": "1 30826U 99025AVL 25360.32390939  .00005953  00000+0  62754-3 0  9996",
        "tle_line2": "2 30826  98.8676 196.8033 0144401 313.7278 228.0745 14.82365020  4878"
      },
      "geometry": {
        "type": "Point",
        "coordinates": [
          22.08627379219176,
          23.36529591933162
        ]
      }
    },
    {
      "type": "Feature",
      "properties": {
        "norad_id": 30827,
        "name": "FENGYUN 1C DEB",
        "group": "fengyun-1c-debris",
        "lat": 78.69586296557063,
        "lon": -139.79735524104183,
        "alt_km": 732.8185259935963,
        "timestamp": "2025-12-27T14:26:30.800691+00:00",
        "meta_object_name": "FENGYUN 1C DEB",
        "meta_object_id": "1999-025AVM",
        "meta_epoch": "2025-12-22T05:24:17.025120",
        "meta_mean_motion": 14.37918372,
        "meta_eccentricity": 0.00439891,
        "meta_inclination": 99.0037,
        "meta_ra_of_asc_node": 342.0879,
        "meta_arg_of_pericenter": 150.3136,
        "meta_mean_anomaly": 210.056,
        "meta_ephemeris_type": 0,
        "meta_classification_type": "U",
        "meta_norad_cat_id": 30827,
        "meta_element_set_no": 999,
        "meta_rev_at_epoch": 96685,
        "meta_bstar": 0.0026816406,
        "meta_mean_motion_dot": 8.15e-05,
        "meta_mean_motion_ddot": 0,
        "tle_line1": "1 30827U 99025AVM 25356.22519705  .00008150  00000+0  26816-2 0  9995",
        "tle_line2": "2 30827  99.0037 342.0879 0043989 150.3136 210.0560 14.37918372966858"
      },
      "geometry": {
        "type": "Point",
        "coordinates": [
          -139.79735524104183,
          78.69586296557063
        ]
      }
    }
  ]
}